NORAD_CAT_ID,OBJECT_NAME,H0,DIST_H0,H_DIST_MIN,PT_DIST_MIN,DIST_MIN,HF,N_PT,DIST_HF,RCS,CCSDS_OMM_VERS,COMMENT,CREATION_DATE,ORIGINATOR,OBJECT_ID,CENTER_NAME,REF_FRAME,TIME_SYSTEM,MEAN_ELEMENT_THEORY,EPOCH,MEAN_MOTION,ECCENTRICITY,INCLINATION,RA_OF_ASC_NODE,ARG_OF_PERICENTER,MEAN_ANOMALY,EPHEMERIS_TYPE,CLASSIFICATION_TYPE,ELEMENT_SET_NO,REV_AT_EPOCH,BSTAR,MEAN_MOTION_DOT,MEAN_MOTION_DDOT,SEMIMAJOR_AXIS,PERIOD,APOAPSIS,PERIAPSIS,OBJECT_TYPE,RCS_SIZE,COUNTRY_CODE,LAUNCH_DATE,SITE,DECAY_DATE,FILE,GP_ID,TLE_LINE0,TLE_LINE1,TLE_LINE2
20303,DELTA 2 R/B(1),2022-08-11T11:51:47.000,1099721.619938993,11:52:55.000,69,989993.705836115,11:54:02.000,135,1097138.698503771,9.3651,2.0,GENERATED VIA SPACE-TRACK.ORG API,2022-08-11T06:46:11,18 SPCS,1989-085B,EARTH,TEME,UTC,SGP4,2022-08-11T00:57:45.330336,15.36418885,0.0078772,35.6391,100.5732,342.5464,17.2565,0,U,999,78831,0.00029283,0.00011817,0.0,6834.846,93.724,510.551,402.872,ROCKET BODY,LARGE,US,1989-10-21,AFETR,,3533983,209999590,0 DELTA 2 R/B(1),1 20303U 89085B   22223.04010799  .00011817  00000-0  29283-3 0  9994,2 20303  35.6391 100.5732 0078772 342.5464  17.2565 15.36418885788316
20580,HST,2022-08-11T15:21:05.000,1097638.94183383,15:23:22.000,138,568168.2807231115,15:25:38.000,273,1095766.5955928375,28.0799,2.0,GENERATED VIA SPACE-TRACK.ORG API,2022-08-11T17:30:41,18 SPCS,1990-037B,EARTH,TEME,UTC,SGP4,2022-08-11T06:27:02.139264,15.1074433,0.0002383,28.469,165.5371,264.5178,216.5839,0,U,999,57451,8.7719e-05,1.676e-05,0.0,6912.066,95.317,535.578,532.284,PAYLOAD,LARGE,US,1990-04-24,AFETR,,3534319,210011825,0 HST,1 20580U 90037B   22223.26877476  .00001676  00000-0  87719-4 0  9998,2 20580  28.4690 165.5371 0002383 264.5178 216.5839 15.10744330574517
20625,SL-16 R/B,2022-08-11T15:41:52.000,1097350.3262081908,15:43:23.000,92,907321.6225169243,15:44:53.000,181,1097352.2975319878,12.3842,2.0,GENERATED VIA SPACE-TRACK.ORG API,2022-08-11T17:30:41,18 SPCS,1990-046B,EARTH,TEME,UTC,SGP4,2022-08-11T05:34:01.123680,14.14695609,0.0012883,70.9988,160.9396,136.0079,224.2071,0,U,999,66360,0.00010322,1.51e-06,0.0,7221.485,101.789,852.653,834.046,ROCKET BODY,LARGE,CIS,1990-05-22,TTMTR,,3534319,210011590,0 SL-16 R/B,1 20625U 90046B   22223.23195745  .00000151  00000-0  10322-3 0  9999,2 20625  70.9988 160.9396 0012883 136.0079 224.2071 14.14695609663604
21398,SL-14 R/B,2022-08-11T11:36:59.000,1097053.663791635,11:38:47.000,109,776641.5915402034,11:40:36.000,217,1097409.3936108185,4.4086,2.0,GENERATED VIA SPACE-TRACK.ORG API,2022-08-11T17:30:41,18 SPCS,1991-039B,EARTH,TEME,UTC,SGP4,2022-08-11T12:25:58.217088,14.79944247,0.0022539,82.5215,274.6334,132.602,227.7099,0,U,999,66109,2.4155e-05,2.07e-06,0.0,7007.637,97.301,645.297,613.708,ROCKET BODY,LARGE,CIS,1991-06-04,PKMTR,,3534319,210010635,0 SL-14 R/B,1 21398U 91039B   22223.51803492  .00000207  00000-0  24155-4 0  9998,2 21398  82.5215 274.6334 0022539 132.6020 227.7099 14.79944247661091
21574,ERS 1,2022-08-11T17:40:58.000,1097296.4327032415,17:42:30.000,93,882001.6346165196,17:44:02.000,184,1099647.3560186033,10.3234,2.0,GENERATED VIA SPACE-TRACK.ORG API,2022-08-11T21:56:12,18 SPCS,1991-050A,EARTH,TEME,UTC,SGP4,2022-08-11T19:24:08.375328,14.37921247,0.0033943,98.7016,193.3247,113.0548,247.4223,0,U,999,62795,3.7984e-05,7e-07,0.0,7143.512,100.145,789.624,741.13,PAYLOAD,LARGE,ESA,1991-07-17,FRGUI,,3534479,210035001,0 ERS 1,1 21574U 91050A   22223.80843027  .00000070  00000-0  37984-4 0  9999,2 21574  98.7016 193.3247 0033943 113.0548 247.4223 14.37921247627958
22015,DELTA 2 R/B(1),2022-08-11T16:03:07.000,1096864.1400486825,16:05:26.000,140,542796.3756343641,16:07:45.000,278,1097704.1936344116,8.6816,2.0,GENERATED VIA SPACE-TRACK.ORG API,2022-08-11T17:30:41,18 SPCS,1992-039B,EARTH,TEME,UTC,SGP4,2022-08-11T06:45:19.456416,15.23545436,0.0042459,20.7129,189.9538,90.0946,270.436,0,U,999,67683,0.00022215,6.192e-05,0.0,6873.294,94.516,524.342,465.975,ROCKET BODY,LARGE,US,1992-07-07,AFETR,,3534319,210010667,0 DELTA 2 R/B(1),1 22015U 92039B   22223.28147519  .00006192  00000-0  22215-3 0  9994,2 22015  20.7129 189.9538 0042459  90.0946 270.4360 15.23545436676838
22015,DELTA 2 R/B(1),2022-08-11T17:44:43.000,1098888.0420301268,17:45:59.000,77,969134.3628779087,17:47:14.000,151,1098854.8557904905,8.6816,2.0,GENERATED VIA SPACE-TRACK.ORG API,2022-08-11T17:30:41,18 SPCS,1992-039B,EARTH,TEME,UTC,SGP4,2022-08-11T06:45:19.456416,15.23545436,0.0042459,20.7129,189.9538,90.0946,270.436,0,U,999,67683,0.00022215,6.192e-05,0.0,6873.294,94.516,524.342,465.975,ROCKET BODY,LARGE,US,1992-07-07,AFETR,,3534319,210010667,0 DELTA 2 R/B(1),1 22015U 92039B   22223.28147519  .00006192  00000-0  22215-3 0  9994,2 22015  20.7129 189.9538 0042459  90.0946 270.4360 15.23545436676838
22109,DELTA 2 R/B(1),2022-08-11T18:27:18.000,1096198.0985471972,18:29:06.000,109,823368.5162102388,18:30:54.000,216,1096977.7326486271,9.1264,2.0,GENERATED VIA SPACE-TRACK.ORG API,2022-08-11T21:16:11,18 SPCS,1992-058B,EARTH,TEME,UTC,SGP4,2022-08-11T17:38:40.547328,14.74063524,0.0036123,19.7838,18.9266,285.9053,73.7381,0,U,999,60821,6.1965e-05,7.95e-06,0.0,7026.263,97.689,673.509,622.747,ROCKET BODY,LARGE,US,1992-09-09,AFETR,,3534381,210032593,0 DELTA 2 R/B(1),1 22109U 92058B   22223.73519152  .00000795  00000-0  61965-4 0  9994,2 22109  19.7838  18.9266 0036123 285.9053  73.7381 14.74063524608213
23343,SL-16 R/B,2022-08-11T11:41:05.000,1098307.4813831123,11:42:24.000,80,937822.919631797,11:43:43.000,158,1099121.002390248,8.232000000000001,2.0,GENERATED VIA SPACE-TRACK.ORG API,2022-08-11T22:16:12,18 SPCS,1994-074B,EARTH,TEME,UTC,SGP4,2022-08-11T18:01:02.326368,14.77067649,0.0007929,97.889,275.4803,130.5268,11.3771,0,U,999,49453,3.2809e-05,1.81e-06,0.0,7016.732,97.49,644.161,633.034,ROCKET BODY,LARGE,CIS,1994-11-04,TTMTR,,3534516,210035657,0 SL-16 R/B,1 23343U 94074B   22223.75072137  .00000181  00000-0  32809-4 0  9998,2 23343  97.8890 275.4803 0007929 130.5268  11.3771 14.77067649494535
25667,ARIANE 42P R/B,2022-08-11T14:36:00.000,1099363.339690764,14:37:52.000,113,404790.4381221881,14:39:44.000,224,1092751.7474757512,20.91,2.0,GENERATED VIA SPACE-TRACK.ORG API,2022-08-11T21:16:11,18 SPCS,1999-016B,EARTH,TEME,UTC,SGP4,2022-08-11T10:39:26.093664,4.77696395,0.5558484,4.3468,281.9715,224.1743,74.807,0,U,999,28729,0.0022924,0.00036353,0.0,14892.486,301.447,16792.315,236.386,ROCKET BODY,LARGE,FR,1999-04-02,FRGUI,,3534389,210032908,0 ARIANE 42P R/B,1 25667U 99016B   22223.44405201  .00036353  00000-0  22924-2 0  9993,2 25667   4.3468 281.9715 5558484 224.1743  74.8070  4.77696395287298
25979,ARIANE 40 R/B,2022-08-11T17:09:57.000,1099616.960461042,17:11:32.000,96,854881.5764157136,17:13:06.000,189,1098184.4156467621,11.1683,2.0,GENERATED VIA SPACE-TRACK.ORG API,2022-08-11T21:46:12,18 SPCS,1999-064C,EARTH,TEME,UTC,SGP4,2022-08-11T18:49:00.499584,14.97981215,0.0005404,98.2119,187.5522,197.2576,162.8462,0,U,999,23150,0.000247,2.851e-05,0.0,6951.272,96.129,576.893,569.38,ROCKET BODY,LARGE,FR,1999-12-03,FRGUI,,3534443,210033888,0 ARIANE 40 R/B,1 25979U 99064C   22223.78403356  .00002851  00000-0  24700-3 0  9999,2 25979  98.2119 187.5522 0005404 197.2576 162.8462 14.97981215231501
26070,SL-16 R/B,2022-08-11T14:46:27.000,1099866.5998576363,14:48:05.000,99,873834.4107395707,14:49:43.000,196,1099672.5415086779,10.3713,2.0,GENERATED VIA SPACE-TRACK.ORG API,2022-08-11T17:30:41,18 SPCS,2000-006B,EARTH,TEME,UTC,SGP4,2022-08-11T12:13:37.604928,14.15496885,0.0016502,71.0043,323.5159,1.7261,358.3916,0,U,999,16370,-1.4403e-05,-7.6e-07,0.0,7218.759,101.731,852.537,828.712,ROCKET BODY,LARGE,CIS,2000-02-03,TTMTR,,3534319,210012595,0 SL-16 R/B,1 26070U 00006B   22223.50946302 -.00000076  00000-0 -14403-4 0  9992,2 26070  71.0043 323.5159 0016502   1.7261 358.3916 14.15496885163704
26072,ATLAS 2AS CENTAUR R/B,2022-08-11T16:36:18.000,1096071.4737465188,16:37:33.000,76,905133.4615896355,16:38:49.000,151,1099765.066857974,16.6508,2.0,GENERATED VIA SPACE-TRACK.ORG API,2022-08-11T21:36:11,18 SPCS,2000-007B,EARTH,TEME,UTC,SGP4,2022-08-11T12:22:42.643776,7.73533606,0.3854313,18.092,358.4682,150.5024,238.28,0,U,999,47745,0.0015217,0.00034505,0.0,10799.8,186.159,8584.246,259.084,ROCKET BODY,LARGE,US,2000-02-03,AFETR,,3534431,210033777,0 ATLAS 2AS CENTAUR R/B,1 26072U 00007B   22223.51577134  .00034505  00000-0  15217-2 0  9993,2 26072  18.0920 358.4682 3854313 150.5024 238.2800  7.73533606477459
26103,TAURUS R/B,2022-08-11T15:00:24.000,1097705.3664263315,15:01:45.000,82,922601.5631735397,15:03:06.000,162,1096654.9774528025,2.0972,2.0,GENERATED VIA SPACE-TRACK.ORG API,2022-08-11T22:06:12,18 SPCS,2000-014B,EARTH,TEME,UTC,SGP4,2022-08-11T19:48:37.580544,15.13450544,0.0026393,97.3562,156.289,230.5507,129.3389,0,U,999,23132,9.7028e-05,1.684e-05,0.0,6903.824,95.147,543.91,507.467,ROCKET BODY,LARGE,US,2000-03-12,AFWTR,,3534493,210035109,0 TAURUS R/B,1 26103U 00014B   22223.82543496  .00001684  00000-0  97028-4 0  9998,2 26103  97.3562 156.2890 0026393 230.5507 129.3389 15.13450544231320
26299,ARIANE 42L R/B,2022-08-11T13:08:02.000,1099290.6777044383,13:08:56.000,55,989648.7033365855,13:09:49.000,107,1097054.542336029,21.12,2.0,GENERATED VIA SPACE-TRACK.ORG API,2022-08-11T17:30:41,18 SPCS,2000-020B,EARTH,TEME,UTC,SGP4,2022-08-11T06:17:28.331808,4.61377823,0.5573973,7.5075,318.6881,155.1985,247.4837,0,U,999,30175,0.00089934,1.625e-05,0.0,15241.605,312.109,17359.099,367.84,ROCKET BODY,LARGE,FR,2000-04-19,FRGUI,,3534319,210012859,0 ARIANE 42L R/B,1 26299U 00020B   22223.26213347  .00001625  00000-0  89934-3 0  9999,2 26299   7.5075 318.6881 5573973 155.1985 247.4837  4.61377823301754
